{
  "type": "FeatureCollection",
  "features": [
    {
      "type": "Feature",
      "properties": {
        "norad_id": 34010,
        "name": "COSMOS 2251 DEB",
        "group": "cosmos-2251-debris",
        "lat": 47.44771740447386,
        "lon": 93.65131533288564,
        "alt_km": 507.43375154321984,
        "timestamp": "2025-12-08T15:42:50.189421+00:00",
        "meta_object_name": "COSMOS 2251 DEB",
        "meta_object_id": "1993-036GV",
        "meta_epoch": "2025-12-08T07:13:58.609920",
        "meta_mean_motion": 15.17488882,
        "meta_eccentricity": 0.00046055,
        "meta_inclination": 73.999,
        "meta_ra_of_asc_node": 292.6061,
        "meta_arg_of_pericenter": 64.0922,
        "meta_mean_anomaly": 296.0748,
        "meta_ephemeris_type": 0,
        "meta_classification_type": "U",
        "meta_norad_cat_id": 34010,
        "meta_element_set_no": 999,
        "meta_rev_at_epoch": 89218,
        "meta_bstar": 0.004890059,
        "meta_mean_motion_dot": 0.00099367,
        "meta_mean_motion_ddot": 0,
        "tle_line1": "1 34010U 93036GV  25342.30137280  .00099367  00000+0  48901-2 0  9996",
        "tle_line2": "2 34010  73.9990 292.6061 0004605  64.0922 296.0748 15.17488882892187"
      },
      "geometry": {
        "type": "Point",
        "coordinates": [
          93.65131533288564,
          47.44771740447386
        ]
      }
    },
    {
      "type": "Feature",
      "properties": {
        "norad_id": 34011,
        "name": "COSMOS 2251 DEB",
        "group": "cosmos-2251-debris",
        "lat": -52.60630662697121,
        "lon": -44.29461234053029,
        "alt_km": 771.2814433435615,
        "timestamp": "2025-12-08T15:42:50.189432+00:00",
        "meta_object_name": "COSMOS 2251 DEB",
        "meta_object_id": "1993-036GW",
        "meta_epoch": "2025-12-08T00:59:02.546016",
        "meta_mean_motion": 14.41734514,
        "meta_eccentricity": 0.00353142,
        "meta_inclination": 74.0152,
        "meta_ra_of_asc_node": 338.868,
        "meta_arg_of_pericenter": 64.0065,
        "meta_mean_anomaly": 296.4721,
        "meta_ephemeris_type": 0,
        "meta_classification_type": "U",
        "meta_norad_cat_id": 34011,
        "meta_element_set_no": 999,
        "meta_rev_at_epoch": 87848,
        "meta_bstar": 0.001052702,
        "meta_mean_motion_dot": 3.436e-05,
        "meta_mean_motion_ddot": 0,
        "tle_line1": "1 34011U 93036GW  25342.04100169  .00003436  00000+0  10527-2 0  9999",
        "tle_line2": "2 34011  74.0152 338.8680 0035314  64.0065 296.4721 14.41734514878483"
      },
      "geometry": {
        "type": "Point",
        "coordinates": [
          -44.29461234053029,
          -52.60630662697121
        ]
      }
    },
    {
      "type": "Feature",
      "properties": {
        "norad_id": 34014,
        "name": "COSMOS 2251 DEB",
        "group": "cosmos-2251-debris",
        "lat": 36.4584439853547,
        "lon": 96.46826901063048,
        "alt_km": 640.4456907992353,
        "timestamp": "2025-12-08T15:42:50.189442+00:00",
        "meta_object_name": "COSMOS 2251 DEB",
        "meta_object_id": "1993-036GZ",
        "meta_epoch": "2025-12-08T07:28:32.393856",
        "meta_mean_motion": 14.73048866,
        "meta_eccentricity": 0.00368866,
        "meta_inclination": 74.0177,
        "meta_ra_of_asc_node": 289.3626,
        "meta_arg_of_pericenter": 70.2382,
        "meta_mean_anomaly": 51.5361,
        "meta_ephemeris_type": 0,
        "meta_classification_type": "U",
        "meta_norad_cat_id": 34014,
        "meta_element_set_no": 999,
        "meta_rev_at_epoch": 89238,
        "meta_bstar": 0.0013210348,
        "meta_mean_motion_dot": 8.565e-05,
        "meta_mean_motion_ddot": 0,
        "tle_line1": "1 34014U 93036GZ  25342.31148604  .00008565  00000+0  13210-2 0  9998",
        "tle_line2": "2 34014  74.0177 289.3626 0036886  70.2382  51.5361 14.73048866892387"
      },
      "geometry": {
        "type": "Point",
        "coordinates": [
          96.46826901063048,
          36.4584439853547
        ]
      }
    },
    {
      "type": "Feature",
      "properties": {
        "norad_id": 34015,
        "name": "COSMOS 2251 DEB",
        "group": "cosmos-2251-debris",
        "lat": 73.738921656069,
        "lon": -113.59141213947615,
        "alt_km": 700.1552176606056,
        "timestamp": "2025-12-08T15:42:50.189452+00:00",
        "meta_object_name": "COSMOS 2251 DEB",
        "meta_object_id": "1993-036HA",
        "meta_epoch": "2025-12-07T23:25:17.714208",
        "meta_mean_motion": 14.60152501,
        "meta_eccentricity": 0.00211207,
        "meta_inclination": 74.0231,
        "meta_ra_of_asc_node": 168.5239,
        "meta_arg_of_pericenter": 265.6618,
        "meta_mean_anomaly": 214.3969,
        "meta_ephemeris_type": 0,
        "meta_classification_type": "U",
        "meta_norad_cat_id": 34015,
        "meta_element_set_no": 999,
        "meta_rev_at_epoch": 88461,
        "meta_bstar": 0.0016689351,
        "meta_mean_motion_dot": 8.04e-05,
        "meta_mean_motion_ddot": 0,
        "tle_line1": "1 34015U 93036HA  25341.97589947  .00008040  00000+0  16689-2 0  9990",
        "tle_line2": "2 34015  74.0231 168.5239 0021120 265.6618 214.3969 14.60152501884612"
      },
      "geometry": {
        "type": "Point",
        "coordinates": [
          -113.59141213947615,
          73.738921656069
        ]
      }
    },
    {
      "type": "Feature",
      "properties": {
        "norad_id": 34018,
        "name": "COSMOS 2251 DEB",
        "group": "cosmos-2251-debris",
        "lat": -45.49931520547599,
        "lon": 81.90082430461524,
        "alt_km": 1159.8605671052273,
        "timestamp": "2025-12-08T15:42:50.189462+00:00",
        "meta_object_name": "COSMOS 2251 DEB",
        "meta_object_id": "1993-036HD",
        "meta_epoch": "2025-12-08T02:53:11.823072",
        "meta_mean_motion": 13.81060958,
        "meta_eccentricity": 0.02640237,
        "meta_inclination": 73.8773,
        "meta_ra_of_asc_node": 99.9235,
        "meta_arg_of_pericenter": 136.6815,
        "meta_mean_anomaly": 38.97,
        "meta_ephemeris_type": 0,
        "meta_classification_type": "U",
        "meta_norad_cat_id": 34018,
        "meta_element_set_no": 999,
        "meta_rev_at_epoch": 84593,
        "meta_bstar": 0.0008668377,
        "meta_mean_motion_dot": 1.171e-05,
        "meta_mean_motion_ddot": 0,
        "tle_line1": "1 34018U 93036HD  25342.12027573  .00001171  00000+0  86684-3 0  9994",
        "tle_line2": "2 34018  73.8773  99.9235 0264023 136.6815  38.9700 13.81060958845934"
      },
      "geometry": {
        "type": "Point",
        "coordinates": [
          81.90082430461524,
          -45.49931520547599
        ]
      }
    },
    {
      "type": "Feature",
      "properties": {
        "norad_id": 34019,
        "name": "COSMOS 2251 DEB",
        "group": "cosmos-2251-debris",
        "lat": 20.02781286949075,
        "lon": 64.27434680540351,
        "alt_km": 813.1381764620601,
        "timestamp": "2025-12-08T15:42:50.189472+00:00",
        "meta_object_name": "COSMOS 2251 DEB",
        "meta_object_id": "1993-036HE",
        "meta_epoch": "2025-12-08T07:32:48.074784",
        "meta_mean_motion": 14.3390401,
        "meta_eccentricity": 0.00627219,
        "meta_inclination": 73.955,
        "meta_ra_of_asc_node": 58.8783,
        "meta_arg_of_pericenter": 240.7266,
        "meta_mean_anomaly": 183.8407,
        "meta_ephemeris_type": 0,
        "meta_classification_type": "U",
        "meta_norad_cat_id": 34019,
        "meta_element_set_no": 999,
        "meta_rev_at_epoch": 87457,
        "meta_bstar": 0.0014761178,
        "meta_mean_motion_dot": 4.18e-05,
        "meta_mean_motion_ddot": 0,
        "tle_line1": "1 34019U 93036HE  25342.31444531  .00004180  00000+0  14761-2 0  9992",
        "tle_line2": "2 34019  73.9550  58.8783 0062721 240.7266 183.8407 14.33904010874579"
      },
      "geometry": {
        "type": "Point",
        "coordinates": [
          64.27434680540351,
          20.02781286949075
        ]
      }
    },
    {
      "type": "Feature",
      "properties": {
        "norad_id": 34021,
        "name": "COSMOS 2251 DEB",
        "group": "cosmos-2251-debris",
        "lat": -60.11564594446071,
        "lon": -12.624252739948727,
        "alt_km": 720.9328603040303,
        "timestamp": "2025-12-08T15:42:50.189483+00:00",
        "meta_object_name": "COSMOS 2251 DEB",
        "meta_object_id": "1993-036HG",
        "meta_epoch": "2025-12-07T21:03:59.290848",
        "meta_mean_motion": 14.49920682,
        "meta_eccentricity": 0.00208207,
        "meta_inclination": 74.0355,
        "meta_ra_of_asc_node": 138.957,
        "meta_arg_of_pericenter": 283.4928,
        "meta_mean_anomaly": 227.0425,
        "meta_ephemeris_type": 0,
        "meta_classification_type": "U",
        "meta_norad_cat_id": 34021,
        "meta_element_set_no": 999,
        "meta_rev_at_epoch": 88559,
        "meta_bstar": 0.00085952531,
        "meta_mean_motion_dot": 3.306e-05,
        "meta_mean_motion_ddot": 0,
        "tle_line1": "1 34021U 93036HG  25341.87776957  .00003306  00000+0  85953-3 0  9996",
        "tle_line2": "2 34021  74.0355 138.9570 0020820 283.4928 227.0425 14.49920682885599"
      },
      "geometry": {
        "type": "Point",
        "coordinates": [
          -12.624252739948727,
          -60.11564594446071
        ]
      }
    }
  ]
}